sat09663
1 09663U 77002C   20046.74688463 -.00000030  00000-0 -27873-4 0  9994
2 09663  81.2685 166.1487 0007095   3.8695 356.2525 14.02487854205335
